<?xml version="1.0" encoding="UTF-8"?>
<ndm xmlns:xsi="http://www.w3.org/2001/XMLSchema-instance" xsi:noNamespaceSchemaLocation="https://sanaregistry.org/r/ndmxml_unqualified/ndmxml-2.0.0-master-2.0.xsd">
<omm id="CCSDS_OMM_VERS" version="2.0">
<header><CREATION_DATE/><ORIGINATOR/></header><body><segment><metadata><OBJECT_NAME>KUIPER-00016</OBJECT_NAME><OBJECT_ID>2025-088J</OBJECT_ID><CENTER_NAME>EARTH</CENTER_NAME><REF_FRAME>TEME</REF_FRAME><TIME_SYSTEM>UTC</TIME_SYSTEM><MEAN_ELEMENT_THEORY>SGP4</MEAN_ELEMENT_THEORY></metadata><data><meanElements><EPOCH>2025-07-20T13:46:46.189344</EPOCH><MEAN_MOTION>15.15973902</MEAN_MOTION><ECCENTRICITY>.0011704</ECCENTRICITY><INCLINATION>51.8847</INCLINATION><RA_OF_ASC_NODE>62.6333</RA_OF_ASC_NODE><ARG_OF_PERICENTER>39.0323</ARG_OF_PERICENTER><MEAN_ANOMALY>321.1497</MEAN_ANOMALY></meanElements><tleParameters><EPHEMERIS_TYPE>0</EPHEMERIS_TYPE><CLASSIFICATION_TYPE>U</CLASSIFICATION_TYPE><NORAD_CAT_ID>63732</NORAD_CAT_ID><ELEMENT_SET_NO>999</ELEMENT_SET_NO><REV_AT_EPOCH>1289</REV_AT_EPOCH><BSTAR>-.34418E-2</BSTAR><MEAN_MOTION_DOT>-.66728E-3</MEAN_MOTION_DOT><MEAN_MOTION_DDOT>0</MEAN_MOTION_DDOT></tleParameters></data></segment></body></omm>
<omm id="CCSDS_OMM_VERS" version="2.0">
<header><CREATION_DATE/><ORIGINATOR/></header><body><segment><metadata><OBJECT_NAME>KUIPER-00018</OBJECT_NAME><OBJECT_ID>2025-088K</OBJECT_ID><CENTER_NAME>EARTH</CENTER_NAME><REF_FRAME>TEME</REF_FRAME><TIME_SYSTEM>UTC</TIME_SYSTEM><MEAN_ELEMENT_THEORY>SGP4</MEAN_ELEMENT_THEORY></metadata><data><meanElements><EPOCH>2025-07-20T07:37:25.680576</EPOCH><MEAN_MOTION>15.37188713</MEAN_MOTION><ECCENTRICITY>.000617</ECCENTRICITY><INCLINATION>51.8676</INCLINATION><RA_OF_ASC_NODE>60.3233</RA_OF_ASC_NODE><ARG_OF_PERICENTER>42.7441</ARG_OF_PERICENTER><MEAN_ANOMALY>317.4024</MEAN_ANOMALY></meanElements><tleParameters><EPHEMERIS_TYPE>0</EPHEMERIS_TYPE><CLASSIFICATION_TYPE>U</CLASSIFICATION_TYPE><NORAD_CAT_ID>63733</NORAD_CAT_ID><ELEMENT_SET_NO>999</ELEMENT_SET_NO><REV_AT_EPOCH>1290</REV_AT_EPOCH><BSTAR>.34103E-3</BSTAR><MEAN_MOTION_DOT>.12247E-3</MEAN_MOTION_DOT><MEAN_MOTION_DDOT>0</MEAN_MOTION_DDOT></tleParameters></data></segment></body></omm>
<omm id="CCSDS_OMM_VERS" version="2.0">
<header><CREATION_DATE/><ORIGINATOR/></header><body><segment><metadata><OBJECT_NAME>KUIPER-00019</OBJECT_NAME><OBJECT_ID>2025-088L</OBJECT_ID><CENTER_NAME>EARTH</CENTER_NAME><REF_FRAME>TEME</REF_FRAME><TIME_SYSTEM>UTC</TIME_SYSTEM><MEAN_ELEMENT_THEORY>SGP4</MEAN_ELEMENT_THEORY></metadata><data><meanElements><EPOCH>2025-07-20T07:26:41.013024</EPOCH><MEAN_MOTION>15.37028271</MEAN_MOTION><ECCENTRICITY>.0003612</ECCENTRICITY><INCLINATION>51.8678</INCLINATION><RA_OF_ASC_NODE>60.2824</RA_OF_ASC_NODE><ARG_OF_PERICENTER>57.3126</ARG_OF_PERICENTER><MEAN_ANOMALY>302.8208</MEAN_ANOMALY></meanElements><tleParameters><EPHEMERIS_TYPE>0</EPHEMERIS_TYPE><CLASSIFICATION_TYPE>U</CLASSIFICATION_TYPE><NORAD_CAT_ID>63734</NORAD_CAT_ID><ELEMENT_SET_NO>999</ELEMENT_SET_NO><REV_AT_EPOCH>1290</REV_AT_EPOCH><BSTAR>.31943E-3</BSTAR><MEAN_MOTION_DOT>.11382E-3</MEAN_MOTION_DOT><MEAN_MOTION_DDOT>0</MEAN_MOTION_DDOT></tleParameters></data></segment></body></omm>
<omm id="CCSDS_OMM_VERS" version="2.0">
<header><CREATION_DATE/><ORIGINATOR/></header><body><segment><metadata><OBJECT_NAME>KUIPER-00020</OBJECT_NAME><OBJECT_ID>2025-088M</OBJECT_ID><CENTER_NAME>EARTH</CENTER_NAME><REF_FRAME>TEME</REF_FRAME><TIME_SYSTEM>UTC</TIME_SYSTEM><MEAN_ELEMENT_THEORY>SGP4</MEAN_ELEMENT_THEORY></metadata><data><meanElements><EPOCH>2025-07-20T14:00:01.999872</EPOCH><MEAN_MOTION>15.31742332</MEAN_MOTION><ECCENTRICITY>.0007443</ECCENTRICITY><INCLINATION>51.8717</INCLINATION><RA_OF_ASC_NODE>59.5393</RA_OF_ASC_NODE><ARG_OF_PERICENTER>46.3153</ARG_OF_PERICENTER><MEAN_ANOMALY>97.4732</MEAN_ANOMALY></meanElements><tleParameters><EPHEMERIS_TYPE>0</EPHEMERIS_TYPE><CLASSIFICATION_TYPE>U</CLASSIFICATION_TYPE><NORAD_CAT_ID>63735</NORAD_CAT_ID><ELEMENT_SET_NO>999</ELEMENT_SET_NO><REV_AT_EPOCH>1314</REV_AT_EPOCH><BSTAR>-.34216E-2</BSTAR><MEAN_MOTION_DOT>-.10541E-2</MEAN_MOTION_DOT><MEAN_MOTION_DDOT>0</MEAN_MOTION_DDOT></tleParameters></data></segment></body></omm>
<omm id="CCSDS_OMM_VERS" version="2.0">
<header><CREATION_DATE/><ORIGINATOR/></header><body><segment><metadata><OBJECT_NAME>KUIPER-00021</OBJECT_NAME><OBJECT_ID>2025-088N</OBJECT_ID><CENTER_NAME>EARTH</CENTER_NAME><REF_FRAME>TEME</REF_FRAME><TIME_SYSTEM>UTC</TIME_SYSTEM><MEAN_ELEMENT_THEORY>SGP4</MEAN_ELEMENT_THEORY></metadata><data><meanElements><EPOCH>2025-07-20T14:00:01.999872</EPOCH><MEAN_MOTION>15.29128167</MEAN_MOTION><ECCENTRICITY>.0004787</ECCENTRICITY><INCLINATION>51.8707</INCLINATION><RA_OF_ASC_NODE>59.8387</RA_OF_ASC_NODE><ARG_OF_PERICENTER>53.9594</ARG_OF_PERICENTER><MEAN_ANOMALY>309.1881</MEAN_ANOMALY></meanElements><tleParameters><EPHEMERIS_TYPE>0</EPHEMERIS_TYPE><CLASSIFICATION_TYPE>U</CLASSIFICATION_TYPE><NORAD_CAT_ID>63736</NORAD_CAT_ID><ELEMENT_SET_NO>999</ELEMENT_SET_NO><REV_AT_EPOCH>1297</REV_AT_EPOCH><BSTAR>-.25362E-1</BSTAR><MEAN_MOTION_DOT>-.674828E-2</MEAN_MOTION_DOT><MEAN_MOTION_DDOT>0</MEAN_MOTION_DDOT></tleParameters></data></segment></body></omm>
<omm id="CCSDS_OMM_VERS" version="2.0">
<header><CREATION_DATE/><ORIGINATOR/></header><body><segment><metadata><OBJECT_NAME>KUIPER-00023</OBJECT_NAME><OBJECT_ID>2025-088P</OBJECT_ID><CENTER_NAME>EARTH</CENTER_NAME><REF_FRAME>TEME</REF_FRAME><TIME_SYSTEM>UTC</TIME_SYSTEM><MEAN_ELEMENT_THEORY>SGP4</MEAN_ELEMENT_THEORY></metadata><data><meanElements><EPOCH>2025-07-20T14:00:01.999872</EPOCH><MEAN_MOTION>15.26133382</MEAN_MOTION><ECCENTRICITY>.0008599</ECCENTRICITY><INCLINATION>51.8716</INCLINATION><RA_OF_ASC_NODE>60.3401</RA_OF_ASC_NODE><ARG_OF_PERICENTER>50.7128</ARG_OF_PERICENTER><MEAN_ANOMALY>77.1422</MEAN_ANOMALY></meanElements><tleParameters><EPHEMERIS_TYPE>0</EPHEMERIS_TYPE><CLASSIFICATION_TYPE>U</CLASSIFICATION_TYPE><NORAD_CAT_ID>63737</NORAD_CAT_ID><ELEMENT_SET_NO>999</ELEMENT_SET_NO><REV_AT_EPOCH>1326</REV_AT_EPOCH><BSTAR>-.19663E-1</BSTAR><MEAN_MOTION_DOT>-.483688E-2</MEAN_MOTION_DOT><MEAN_MOTION_DDOT>0</MEAN_MOTION_DDOT></tleParameters></data></segment></body></omm>
<omm id="CCSDS_OMM_VERS" version="2.0">
<header><CREATION_DATE/><ORIGINATOR/></header><body><segment><metadata><OBJECT_NAME>KUIPER-00024</OBJECT_NAME><OBJECT_ID>2025-088Q</OBJECT_ID><CENTER_NAME>EARTH</CENTER_NAME><REF_FRAME>TEME</REF_FRAME><TIME_SYSTEM>UTC</TIME_SYSTEM><MEAN_ELEMENT_THEORY>SGP4</MEAN_ELEMENT_THEORY></metadata><data><meanElements><EPOCH>2025-07-20T07:31:20.466048</EPOCH><MEAN_MOTION>15.38233495</MEAN_MOTION><ECCENTRICITY>.0002956</ECCENTRICITY><INCLINATION>51.8715</INCLINATION><RA_OF_ASC_NODE>59.5871</RA_OF_ASC_NODE><ARG_OF_PERICENTER>83.8862</ARG_OF_PERICENTER><MEAN_ANOMALY>276.2462</MEAN_ANOMALY></meanElements><tleParameters><EPHEMERIS_TYPE>0</EPHEMERIS_TYPE><CLASSIFICATION_TYPE>U</CLASSIFICATION_TYPE><NORAD_CAT_ID>63738</NORAD_CAT_ID><ELEMENT_SET_NO>999</ELEMENT_SET_NO><REV_AT_EPOCH>1338</REV_AT_EPOCH><BSTAR>-.23762E-3</BSTAR><MEAN_MOTION_DOT>-.9477E-4</MEAN_MOTION_DOT><MEAN_MOTION_DDOT>0</MEAN_MOTION_DDOT></tleParameters></data></segment></body></omm>
<omm id="CCSDS_OMM_VERS" version="2.0">
<header><CREATION_DATE/><ORIGINATOR/></header><body><segment><metadata><OBJECT_NAME>KUIPER-00025</OBJECT_NAME><OBJECT_ID>2025-088R</OBJECT_ID><CENTER_NAME>EARTH</CENTER_NAME><REF_FRAME>TEME</REF_FRAME><TIME_SYSTEM>UTC</TIME_SYSTEM><MEAN_ELEMENT_THEORY>SGP4</MEAN_ELEMENT_THEORY></metadata><data><meanElements><EPOCH>2025-07-20T14:00:01.999872</EPOCH><MEAN_MOTION>15.35120471</MEAN_MOTION><ECCENTRICITY>.0004915</ECCENTRICITY><INCLINATION>51.8685</INCLINATION><RA_OF_ASC_NODE>59.1199</RA_OF_ASC_NODE><ARG_OF_PERICENTER>52.0508</ARG_OF_PERICENTER><MEAN_ANOMALY>294.4249</MEAN_ANOMALY></meanElements><tleParameters><EPHEMERIS_TYPE>0</EPHEMERIS_TYPE><CLASSIFICATION_TYPE>U</CLASSIFICATION_TYPE><NORAD_CAT_ID>63739</NORAD_CAT_ID><ELEMENT_SET_NO>999</ELEMENT_SET_NO><REV_AT_EPOCH>1326</REV_AT_EPOCH><BSTAR>-.18069E-1</BSTAR><MEAN_MOTION_DOT>-.580277E-2</MEAN_MOTION_DOT><MEAN_MOTION_DDOT>0</MEAN_MOTION_DDOT></tleParameters></data></segment></body></omm>

</ndm>
