KUIPER-00016            
1 63732U 25088J   25201.57414571 -.00066728  00000+0 -34418-2 0  9990
2 63732  51.8847  62.6333 0011704  39.0323 321.1497 15.15973902 12891
KUIPER-00018            
1 63733U 25088K   25201.31765834  .00012247  00000+0  34103-3 0  9991
2 63733  51.8676  60.3233 0006170  42.7441 317.4024 15.37188713 12907
KUIPER-00019            
1 63734U 25088L   25201.31019691  .00011382  00000+0  31943-3 0  9993
2 63734  51.8678  60.2824 0003612  57.3126 302.8208 15.37028271 12909
KUIPER-00020            
1 63735U 25088M   25201.58335648 -.00105410  00000+0 -34216-2 0  9999
2 63735  51.8717  59.5393 0007443  46.3153  97.4732 15.31742332 13141
KUIPER-00021            
1 63736U 25088N   25201.58335648 -.00674828  00000+0 -25362-1 0  9995
2 63736  51.8707  59.8387 0004787  53.9594 309.1881 15.29128167 12977
KUIPER-00023            
1 63737U 25088P   25201.58335648 -.00483688  00000+0 -19663-1 0  9995
2 63737  51.8716  60.3401 0008599  50.7128  77.1422 15.26133382 13263
KUIPER-00024            
1 63738U 25088Q   25201.31343132 -.00009477  00000+0 -23762-3 0  9991
2 63738  51.8715  59.5871 0002956  83.8862 276.2462 15.38233495 13385
KUIPER-00025            
1 63739U 25088R   25201.58335648 -.00580277  00000+0 -18069-1 0  9998
2 63739  51.8685  59.1199 0004915  52.0508 294.4249 15.35120471 13261
